     2.100          NAVIGATION                              RINEX VERSION / TYPE
fic2rin                                 03/29/2017 00:04:09 PGM / RUN BY / DATE
                                                            END OF HEADER
 8 17  3 28 20  0  0.0 -.543529167771D-04 -.125055521494D-11  .000000000000D+00
     .940000000000D+02  .661875000000D+02  .427874965567D-08  .944533550882D+00
     .325590372086D-05  .258932367433D-02  .118948519230D-04  .515361056137D+04
     .244800000000D+06  .502914190292D-07 -.245188162109D+01  .186264514923D-08
     .966307796198D+00  .149843750000D+03 -.769749908019D+00 -.797211778499D-08
     .418588864478D-09  .100000000000D+01  .194200000000D+04  .000000000000D+00
     .240000000000D+01  .000000000000D+00  .465661287308D-08  .940000000000D+02
     .237606000000D+06  .400000000000D+01
 9 17  3 28 20  0  0.0  .331450719386D-03  .773070496507D-11  .000000000000D+00
     .400000000000D+02  .964687500000D+02  .450911639423D-08  .440963048841D+00
     .490993261337D-05  .873366603628D-03  .114776194096D-04  .515367219925D+04
     .244800000000D+06  .204890966415D-07  .689710933023D+00  .111758708954D-07
     .954029456002D+00  .149843750000D+03  .185073172117D+01 -.813605318499D-08
     .560380484954D-09  .100000000000D+01  .194200000000D+04  .000000000000D+00
     .240000000000D+01  .000000000000D+00  .139698386192D-08  .400000000000D+02
     .237606000000D+06  .400000000000D+01
10 17  3 28 20  0  0.0 -.866777263582D-04  .659383658785D-11  .000000000000D+00
     .560000000000D+02 -.630000000000D+02  .438053960991D-08  .233544886939D+01
    -.322610139847D-05  .238254538272D-02  .112839043140D-04  .515367958069D+04
     .244800000000D+06 -.484287738800D-07 -.350299631294D+00  .335276126862D-07
     .960290170454D+00  .160187500000D+03 -.282317730135D+01 -.798711840983D-08
    -.465019369923D-09  .100000000000D+01  .194200000000D+04  .000000000000D+00
     .240000000000D+01  .000000000000D+00  .232830643654D-08  .560000000000D+02
     .237606000000D+06  .400000000000D+01
11 17  3 28 20  0  0.0 -.677758362144D-03 -.238742359215D-11  .000000000000D+00
     .130000000000D+02  .773437500000D+02  .620132973885D-08 -.239356382698D+01
     .409409403801D-05  .166440574685D-01  .350177288055D-05  .515369705200D+04
     .244800000000D+06  .251457095146D-06 -.178751676783D+01  .447034835815D-07
     .899790189725D+00  .276937500000D+03  .162899563332D+01 -.885358307299D-08
     .405374028313D-09  .100000000000D+01  .194200000000D+04  .000000000000D+00
     .240000000000D+01  .000000000000D+00 -.121071934700D-07  .130000000000D+02
     .237606000000D+06  .400000000000D+01
12 17  3 28 20  0  0.0  .386359635741D-03 -.568434188608D-12  .000000000000D+00
     .510000000000D+02 -.955312500000D+02  .376229957202D-08 -.299705291243D+01
    -.497885048389D-05  .660556426737D-02  .113155692816D-04  .515356655693D+04
     .244800000000D+06 -.316649675369D-07  .285171048128D+01 -.182539224625D-06
     .989743558038D+00  .172500000000D+03  .817614562894D+00 -.764138972313D-08
    -.463233581252D-09  .100000000000D+01  .194200000000D+04  .000000000000D+00
     .240000000000D+01  .000000000000D+00 -.121071934700D-07  .510000000000D+02
     .237606000000D+06  .400000000000D+01
13 17  3 28 20  0  0.0 -.757407397032D-04 -.159161572810D-11  .000000000000D+00
     .540000000000D+02  .943125000000D+02  .430982237854D-08 -.137105365279D+01
     .499375164509D-05  .396367534995D-02  .102333724499D-04  .515369130898D+04
     .244800000000D+06 -.707805156708D-07  .815026457466D+00  .111758708954D-07
     .970031380603D+00  .189843750000D+03  .184606213201D+01 -.802640576059D-08
     .559309011751D-09  .100000000000D+01  .194200000000D+04  .000000000000D+00
     .240000000000D+01  .000000000000D+00 -.111758708954D-07  .540000000000D+02
     .237606000000D+06  .400000000000D+01
14 17  3 28 20  0  0.0 -.646640546620D-04 -.159161572810D-11  .000000000000D+00
     .380000000000D+02  .106593750000D+03  .452018828399D-08 -.353794302667D-02
     .548735260963D-05  .884112250060D-02  .998564064503D-05  .515364085197D+04
     .244800000000D+06 -.115483999252D-06  .775973110326D+00  .163912773132D-06
     .962582428496D+00  .191781250000D+03 -.196143381167D+01 -.824605776712D-08
     .558594696283D-09  .100000000000D+01  .194200000000D+04  .000000000000D+00
     .240000000000D+01  .000000000000D+00 -.931322574615D-08  .380000000000D+02
     .237606000000D+06  .400000000000D+01
15 17  3 28 20  0  0.0 -.346636399627D-03 -.909494701773D-12  .000000000000D+00
     .340000000000D+02  .846250000000D+02  .505663920075D-08 -.513650399669D+00
     .461563467979D-05  .908242061269D-02  .108554959297D-04  .515377597046D+04
     .244800000000D+06  .100582838058D-06  .629595949907D+00  .800937414169D-07
     .929713631905D+00  .153718750000D+03  .578547956033D+00 -.846392398498D-08
     .440732643998D-09  .100000000000D+01  .194200000000D+04  .000000000000D+00
     .240000000000D+01  .000000000000D+00 -.107102096081D-07  .340000000000D+02
     .237606000000D+06  .400000000000D+01
16 17  3 28 20  0  0.0  .300342217088D-04  .909494701773D-12  .000000000000D+00
     .260000000000D+02 -.840312500000D+02  .384301721995D-08  .130250309489D+01
    -.403448939323D-05  .933089479804D-02  .120997428894D-04  .515367393684D+04
     .244800000000D+06  .335276126862D-07  .287054531017D+01  .158324837685D-06
     .990234751801D+00  .163187500000D+03  .419219987087D+00 -.778603860547D-08
    -.613954145083D-09  .100000000000D+01  .194200000000D+04  .000000000000D+00
     .240000000000D+01  .000000000000D+00 -.107102096081D-07  .260000000000D+02
     .237606000000D+06  .400000000000D+01
17 17  3 28 20  0  0.0 -.186238903552D-03  .147792889038D-11  .000000000000D+00
     .190000000000D+02  .605937500000D+02  .407088385437D-08  .294961537989D+00
     .325962901115D-05  .116306202253D-01  .116378068924D-04  .515360442162D+04
     .244800000000D+06 -.126659870148D-06 -.239514745482D+01  .521540641785D-07
     .979478017568D+00  .168937500000D+03 -.185210393101D+01 -.801354808216D-08
     .423946230491D-09  .100000000000D+01  .194200000000D+04  .000000000000D+00
     .240000000000D+01  .000000000000D+00 -.107102096081D-07  .190000000000D+02
     .237606000000D+06  .400000000000D+01
18 17  3 28 20  0  0.0  .607320573181D-03  .216004991671D-11  .000000000000D+00
     .520000000000D+02 -.841875000000D+02  .506842540598D-08  .180794453311D+01
    -.452995300293D-05  .178569332929D-01  .102892518044D-04  .515375815773D+04
     .244800000000D+06 -.260770320892D-07 -.390238206256D+00 -.437721610069D-06
     .925819633635D+00  .163093750000D+03 -.182095831733D+01 -.832463246864D-08
    -.433589489314D-09  .100000000000D+01  .194200000000D+04  .000000000000D+00
     .240000000000D+01  .000000000000D+00 -.111758708954D-07  .520000000000D+02
     .237606000000D+06  .400000000000D+01
19 17  3 28 20  0  0.0 -.509000383317D-03  .125055521494D-11  .000000000000D+00
     .780000000000D+02  .661562500000D+02  .410659962779D-08 -.284659396187D+01
     .340677797794D-05  .102113838075D-01  .109411776066D-04  .515365958023D+04
     .244800000000D+06  .158324837685D-06 -.234717223113D+01 -.189989805222D-06
     .976674077596D+00  .174312500000D+03  .935796382373D+00 -.773782231136D-08
     .513949979508D-09  .100000000000D+01  .194200000000D+04  .000000000000D+00
     .240000000000D+01  .000000000000D+00 -.153668224812D-07  .780000000000D+02
     .237606000000D+06  .400000000000D+01
20 17  3 28 20  0  0.0  .465990509838D-03  .159161572810D-11  .000000000000D+00
     .360000000000D+02 -.832187500000D+02  .513235664040D-08 -.564497492466D+00
    -.426545739174D-05  .444870570209D-02  .994652509689D-05  .515365543747D+04
     .244800000000D+06 -.100582838058D-06 -.441643687569D+00  .596046447754D-07
     .927120994357D+00  .171375000000D+03  .157651088711D+01 -.849535386559D-08
    -.422517599554D-09  .100000000000D+01  .194200000000D+04  .000000000000D+00
     .240000000000D+01  .000000000000D+00 -.838190317154D-08  .360000000000D+02
     .237606000000D+06  .400000000000D+01
21 17  3 28 20  0  0.0 -.515173655003D-03  .181898940355D-11  .000000000000D+00
     .130000000000D+02  .104062500000D+02  .536236622122D-08  .270935723650D+01
     .391155481339D-06  .240201975685D-01  .171922147274D-05  .515370789719D+04
     .244800000000D+06  .264495611191D-06 -.143129720446D+01 -.178813934326D-06
     .938723080190D+00  .329656250000D+03 -.169050413660D+01 -.838034907518D-08
    -.803604901941D-10  .100000000000D+01  .194200000000D+04  .000000000000D+00
     .240000000000D+01  .000000000000D+00 -.977888703346D-08  .130000000000D+02
     .237606000000D+06  .400000000000D+01
22 17  3 28 20  0  0.0  .588367693126D-04 -.118234311230D-10  .000000000000D+00
     .300000000000D+02 -.720312500000D+02  .523378943691D-08 -.170526055323D+00
    -.368803739548D-05  .753581256140D-02  .108722597361D-04  .515355808258D+04
     .244800000000D+06 -.968575477600D-07 -.390252939304D+00  .137835741043D-06
     .923836254654D+00  .151687500000D+03 -.178097531647D+01 -.855178478759D-08
    -.511449875369D-09  .100000000000D+01  .194200000000D+04  .000000000000D+00
     .240000000000D+01  .000000000000D+00 -.176951289177D-07  .300000000000D+02
     .237606000000D+06  .400000000000D+01
23 17  3 28 20  0  0.0 -.208607409149D-03 -.795807864051D-12  .000000000000D+00
     .450000000000D+02  .106500000000D+03  .479055668877D-08 -.939614289884D+00
     .566616654396D-05  .114370674128D-01  .111050903797D-04  .515377907753D+04
     .244800000000D+06  .281259417534D-06  .692086065374D+00  .147148966789D-06
     .944907659997D+00  .153437500000D+03 -.248834993347D+01 -.829141679936D-08
     .559666169485D-09  .100000000000D+01  .194200000000D+04  .000000000000D+00
     .240000000000D+01  .000000000000D+00 -.200234353542D-07  .450000000000D+02
     .237606000000D+06  .400000000000D+01
